ONEWEB-0412             
1 50489U 21132W   24025.84150755  .00000047  00000+0  86348-4 0  9996
2 50489  87.9245 149.2517 0001934 123.5160 236.6157 13.18686474106552
ONEWEB-0413             
1 50490U 21132X   24025.84625656 -.00000095  00000+0 -27346-3 0  9992
2 50490  87.9242 149.2645 0002042 114.3000 245.8345 13.18684852106497
ONEWEB-0414             
1 50491U 21132Y   24025.83202796  .00000066  00000+0  13429-3 0  9991
2 50491  87.9239 149.2515 0001584 119.5851 240.5439 13.18684797106529
ONEWEB-0417             
1 50492U 21132Z   24025.83993261  .00000034  00000+0  54249-4 0  9997
2 50492  87.9246 149.2425 0001259 105.3900 254.7371 13.18686139106507
ONEWEB-0418             
1 50493U 21132AA  24025.85337841  .00000004  00000+0 -22888-4 0  9998
2 50493  87.9241 149.2505 0001000 106.6111 253.5131 13.18686614106569
ONEWEB-0419             
1 50494U 21132AB  24025.86680512  .00000027  00000+0  36377-4 0  9998
2 50494  87.9236 149.2689 0001303  95.7884 264.3397 13.18685019106481
ONEWEB-0420             
1 50495U 21132AC  24025.83361341  .00000105  00000+0  23439-3 0  9993
2 50495  87.9241 149.2827 0001914  97.6129 262.5221 13.18688448106477
ONEWEB-0421             
1 50496U 21132AD  24025.90316892  .00000049  00000+0  92043-4 0  9998
2 50496  87.9245 149.2244 0001709 121.3745 238.7554 13.18685102106520
